CCSDS_OMM_VERS = 2.0
CREATION_DATE  = 
ORIGINATOR     = 

OBJECT_NAME    = PROGRESS-MS 32
OBJECT_ID      = 2025-204A
CENTER_NAME    = EARTH
REF_FRAME      = TEME
TIME_SYSTEM    = UTC
MEAN_ELEMENT_THEORY = SGP/SGP4

EPOCH          = 2025-12-06T00:38:46.837536
MEAN_MOTION    = 15.49350538
ECCENTRICITY   = .00036145
INCLINATION    = 51.6296
RA_OF_ASC_NODE = 175.7148
ARG_OF_PERICENTER = 210.2448
MEAN_ANOMALY   = 149.8333

EPHEMERIS_TYPE = 0
CLASSIFICATION_TYPE = U
NORAD_CAT_ID   = 65586
ELEMENT_SET_NO = 999
REV_AT_EPOCH   = 27
BSTAR          = .25885847E-3
MEAN_MOTION_DOT = .14013E-3
MEAN_MOTION_DDOT = 0

CCSDS_OMM_VERS = 2.0
CREATION_DATE  = 
ORIGINATOR     = 

OBJECT_NAME    = CYGNUS NG-23
OBJECT_ID      = 2025-208A
CENTER_NAME    = EARTH
REF_FRAME      = TEME
TIME_SYSTEM    = UTC
MEAN_ELEMENT_THEORY = SGP/SGP4

EPOCH          = 2025-12-06T00:38:46.837536
MEAN_MOTION    = 15.49350538
ECCENTRICITY   = .00036145
INCLINATION    = 51.6296
RA_OF_ASC_NODE = 175.7148
ARG_OF_PERICENTER = 210.2448
MEAN_ANOMALY   = 149.8333

EPHEMERIS_TYPE = 0
CLASSIFICATION_TYPE = U
NORAD_CAT_ID   = 65616
ELEMENT_SET_NO = 999
REV_AT_EPOCH   = 22
BSTAR          = .25885847E-3
MEAN_MOTION_DOT = .14013E-3
MEAN_MOTION_DDOT = 0

CCSDS_OMM_VERS = 2.0
CREATION_DATE  = 
ORIGINATOR     = 

OBJECT_NAME    = DRAGONFLY
OBJECT_ID      = 1998-067XH
CENTER_NAME    = EARTH
REF_FRAME      = TEME
TIME_SYSTEM    = UTC
MEAN_ELEMENT_THEORY = SGP/SGP4

EPOCH          = 2025-12-05T22:19:10.752384
MEAN_MOTION    = 15.69233632
ECCENTRICITY   = .00065123
INCLINATION    = 51.6246
RA_OF_ASC_NODE = 170.5624
ARG_OF_PERICENTER = 233.7397
MEAN_ANOMALY   = 126.2998

EPHEMERIS_TYPE = 0
CLASSIFICATION_TYPE = U
NORAD_CAT_ID   = 65729
ELEMENT_SET_NO = 999
REV_AT_EPOCH   = 1209
BSTAR          = .14111437E-2
MEAN_MOTION_DOT = .170954E-2
MEAN_MOTION_DDOT = 0

CCSDS_OMM_VERS = 2.0
CREATION_DATE  = 
ORIGINATOR     = 

OBJECT_NAME    = 1998-067XK
OBJECT_ID      = 1998-067XK
CENTER_NAME    = EARTH
REF_FRAME      = TEME
TIME_SYSTEM    = UTC
MEAN_ELEMENT_THEORY = SGP/SGP4

EPOCH          = 2025-12-05T20:05:48.700608
MEAN_MOTION    = 15.64093983
ECCENTRICITY   = .00057209
INCLINATION    = 51.6273
RA_OF_ASC_NODE = 172.2071
ARG_OF_PERICENTER = 204.6703
MEAN_ANOMALY   = 155.4018

EPHEMERIS_TYPE = 0
CLASSIFICATION_TYPE = U
NORAD_CAT_ID   = 65731
ELEMENT_SET_NO = 999
REV_AT_EPOCH   = 1206
BSTAR          = .11848304E-2
MEAN_MOTION_DOT = .115678E-2
MEAN_MOTION_DDOT = 0

CCSDS_OMM_VERS = 2.0
CREATION_DATE  = 
ORIGINATOR     = 

OBJECT_NAME    = RSP-03
OBJECT_ID      = 1998-067XL
CENTER_NAME    = EARTH
REF_FRAME      = TEME
TIME_SYSTEM    = UTC
MEAN_ELEMENT_THEORY = SGP/SGP4

EPOCH          = 2025-12-05T18:57:39.721248
MEAN_MOTION    = 15.66485796
ECCENTRICITY   = .00063944
INCLINATION    = 51.6249
RA_OF_ASC_NODE = 171.8843
ARG_OF_PERICENTER = 207.4241
MEAN_ANOMALY   = 152.6418

EPHEMERIS_TYPE = 0
CLASSIFICATION_TYPE = U
NORAD_CAT_ID   = 65732
ELEMENT_SET_NO = 999
REV_AT_EPOCH   = 1207
BSTAR          = .13603267E-2
MEAN_MOTION_DOT = .146827E-2
MEAN_MOTION_DDOT = 0

CCSDS_OMM_VERS = 2.0
CREATION_DATE  = 
ORIGINATOR     = 

OBJECT_NAME    = GHS-01
OBJECT_ID      = 1998-067XM
CENTER_NAME    = EARTH
REF_FRAME      = TEME
TIME_SYSTEM    = UTC
MEAN_ELEMENT_THEORY = SGP/SGP4

EPOCH          = 2025-12-05T18:22:20.248896
MEAN_MOTION    = 15.71403318
ECCENTRICITY   = .00069806
INCLINATION    = 51.6266
RA_OF_ASC_NODE = 170.9683
ARG_OF_PERICENTER = 233.1607
MEAN_ANOMALY   = 126.8751

EPHEMERIS_TYPE = 0
CLASSIFICATION_TYPE = U
NORAD_CAT_ID   = 65733
ELEMENT_SET_NO = 999
REV_AT_EPOCH   = 1208
BSTAR          = .17020077E-2
MEAN_MOTION_DOT = .227447E-2
MEAN_MOTION_DDOT = 0

CCSDS_OMM_VERS = 2.0
CREATION_DATE  = 
ORIGINATOR     = 

OBJECT_NAME    = YOTSUBA-KULOVER
OBJECT_ID      = 1998-067XN
CENTER_NAME    = EARTH
REF_FRAME      = TEME
TIME_SYSTEM    = UTC
MEAN_ELEMENT_THEORY = SGP/SGP4

EPOCH          = 2025-12-05T22:00:54.491904
MEAN_MOTION    = 15.58286182
ECCENTRICITY   = .00020197
INCLINATION    = 51.6277
RA_OF_ASC_NODE = 174.2380
ARG_OF_PERICENTER = 187.9006
MEAN_ANOMALY   = 172.1955

EPHEMERIS_TYPE = 0
CLASSIFICATION_TYPE = U
NORAD_CAT_ID   = 65941
ELEMENT_SET_NO = 999
REV_AT_EPOCH   = 879
BSTAR          = .10118942E-2
MEAN_MOTION_DOT = .7842E-3
MEAN_MOTION_DDOT = 0

CCSDS_OMM_VERS = 2.0
CREATION_DATE  = 
ORIGINATOR     = 

OBJECT_NAME    = BOTAN
OBJECT_ID      = 1998-067XP
CENTER_NAME    = EARTH
REF_FRAME      = TEME
TIME_SYSTEM    = UTC
MEAN_ELEMENT_THEORY = SGP/SGP4

EPOCH          = 2025-12-05T19:24:08.395200
MEAN_MOTION    = 15.61079270
ECCENTRICITY   = .00040957
INCLINATION    = 51.6268
RA_OF_ASC_NODE = 174.2609
ARG_OF_PERICENTER = 186.0920
MEAN_ANOMALY   = 174.0025

EPHEMERIS_TYPE = 0
CLASSIFICATION_TYPE = U
NORAD_CAT_ID   = 65942
ELEMENT_SET_NO = 999
REV_AT_EPOCH   = 878
BSTAR          = .14404532E-2
MEAN_MOTION_DOT = .1252E-2
MEAN_MOTION_DDOT = 0

CCSDS_OMM_VERS = 2.0
CREATION_DATE  = 
ORIGINATOR     = 

OBJECT_NAME    = E-KAGAKU-1
OBJECT_ID      = 1998-067XQ
CENTER_NAME    = EARTH
REF_FRAME      = TEME
TIME_SYSTEM    = UTC
MEAN_ELEMENT_THEORY = SGP/SGP4

EPOCH          = 2025-12-05T20:28:25.846752
MEAN_MOTION    = 15.58235285
ECCENTRICITY   = .00033373
INCLINATION    = 51.6291
RA_OF_ASC_NODE = 174.5622
ARG_OF_PERICENTER = 163.5442
MEAN_ANOMALY   = 196.5659

EPHEMERIS_TYPE = 0
CLASSIFICATION_TYPE = U
NORAD_CAT_ID   = 65943
ELEMENT_SET_NO = 999
REV_AT_EPOCH   = 878
BSTAR          = .98694907E-3
MEAN_MOTION_DOT = .76316E-3
MEAN_MOTION_DDOT = 0

CCSDS_OMM_VERS = 2.0
CREATION_DATE  = 
ORIGINATOR     = 

OBJECT_NAME    = HRC MONOBLOCK CAMERA
OBJECT_ID      = 1998-067XR
CENTER_NAME    = EARTH
REF_FRAME      = TEME
TIME_SYSTEM    = UTC
MEAN_ELEMENT_THEORY = SGP/SGP4

EPOCH          = 2025-12-05T21:33:04.932864
MEAN_MOTION    = 15.53474220
ECCENTRICITY   = .00041965
INCLINATION    = 51.6285
RA_OF_ASC_NODE = 175.6042
ARG_OF_PERICENTER = 157.7899
MEAN_ANOMALY   = 202.3273

EPHEMERIS_TYPE = 0
CLASSIFICATION_TYPE = U
NORAD_CAT_ID   = 66052
ELEMENT_SET_NO = 999
REV_AT_EPOCH   = 777
BSTAR          = .68980768E-3
MEAN_MOTION_DOT = .44373E-3
MEAN_MOTION_DDOT = 0

CCSDS_OMM_VERS = 2.0
CREATION_DATE  = 
ORIGINATOR     = 

OBJECT_NAME    = HTV-X1
OBJECT_ID      = 2025-241A
CENTER_NAME    = EARTH
REF_FRAME      = TEME
TIME_SYSTEM    = UTC
MEAN_ELEMENT_THEORY = SGP/SGP4

EPOCH          = 2025-12-06T00:38:46.837536
MEAN_MOTION    = 15.49350538
ECCENTRICITY   = .00036145
INCLINATION    = 51.6296
RA_OF_ASC_NODE = 175.7148
ARG_OF_PERICENTER = 210.2448
MEAN_ANOMALY   = 149.8333

EPHEMERIS_TYPE = 0
CLASSIFICATION_TYPE = U
NORAD_CAT_ID   = 66174
ELEMENT_SET_NO = 999
REV_AT_EPOCH   = 51
BSTAR          = .25885847E-3
MEAN_MOTION_DOT = .14013E-3
MEAN_MOTION_DDOT = 0

CCSDS_OMM_VERS = 2.0
CREATION_DATE  = 
ORIGINATOR     = 

OBJECT_NAME    = SZ-21 MODULE
OBJECT_ID      = 2025-246C
CENTER_NAME    = EARTH
REF_FRAME      = TEME
TIME_SYSTEM    = UTC
MEAN_ELEMENT_THEORY = SGP/SGP4

EPOCH          = 2025-12-05T12:10:17.025600
MEAN_MOTION    = 15.61972458
ECCENTRICITY   = .000603
INCLINATION    = 41.4776
RA_OF_ASC_NODE = 60.1494
ARG_OF_PERICENTER = 219.3277
MEAN_ANOMALY   = 140.7125

EPHEMERIS_TYPE = 0
CLASSIFICATION_TYPE = U
NORAD_CAT_ID   = 66515
ELEMENT_SET_NO = 999
REV_AT_EPOCH   = 331
BSTAR          = .43081448E-3
MEAN_MOTION_DOT = .38539E-3
MEAN_MOTION_DDOT = 0

